ANIK F3                 
1 31102U 07009A   22276.52688253 -.00000011  00000+0  00000+0 0  9992
2 31102   0.0169 157.0431 0001758  25.5285 260.6051  1.00271355 32991
ASTRA 1L                
1 31306U 07016A   22276.27488554  .00000111  00000+0  00000+0 0  9990
2 31306   0.0112 350.5489 0003385 246.6316 252.9301  1.00272707 31440
GALAXY 17 (G-17)        
1 31307U 07016B   22276.49216102 -.00000184  00000+0  00000+0 0  9994
2 31307   0.0124 185.2861 0003038  22.3456 250.7115  1.00269590 56240
ZHONGXING-6B            
1 31800U 07031A   22276.59050956 -.00000372  00000+0  00000+0 0  9992
2 31800   0.0097 186.2214 0004576  19.8556 134.3008  1.00268741 55862
DIRECTV 10              
1 31862U 07032A   22276.49771530 -.00000113  00000+0  00000+0 0  9991
2 31862   0.0426  10.8970 0000131 213.4544 224.2251  1.00271299 32034
SPACEWAY 3              
1 32018U 07036A   22276.49216102 -.00000161  00000+0  00000+0 0  9991
2 32018   0.4993  90.4521 0000688  33.4611 330.5018  1.00270870 32990
BSAT-3A                 
1 32019U 07036B   22276.58272899 -.00000361  00000+0  00000+0 0  9999
2 32019   0.0238 192.9353 0004012  19.6543 119.3192  1.00271062 36955
OPTUS D2                
1 32252U 07044A   22276.51660495 -.00000193  00000+0  00000+0 0  9996
2 32252   0.0156 264.3492 0003672 279.4197 166.4327  1.00271991 55004
INTELSAT 11 (IS-11)     
1 32253U 07044B   22276.45396831 -.00000278  00000+0  00000+0 0  9994
2 32253   0.0612  90.0926 0001917 121.6423 280.8581  1.00270465 54937
WGS F1 (USA 195)        
1 32258U 07046A   22276.34394823  .00000031  00000+0  00000+0 0  9994
2 32258   0.0168 192.3285 0000208 291.1590  18.3929  1.00269696 38781
SKYNET 5B               
1 32294U 07056B   22276.49131685  .00000132  00000+0  00000+0 0  9998
2 32294   1.7930  88.4090 0003777 100.6175  25.1306  1.00270225 54639
ASTRA 4A (SIRIUS 4)     
1 32299U 07057A   22276.34377383  .00000023  00000+0  00000+0 0  9994
2 32299   0.0407  65.5032 0002899 122.7401 312.3688  1.00270817 38103
HORIZONS-2              
1 32388U 07063B   22276.54449819 -.00000263  00000+0  00000+0 0  9993
2 32388   0.0459  89.0328 0002655 108.6588 296.7765  1.00270025 54253
THURAYA-3               
1 32404U 08001A   22276.43382681 -.00000310  00000+0  00000+0 0  9999
2 32404   4.1436  24.8571 0002053 153.4219  88.5372  1.00270805 53920
EXPRESS-AM33            
1 32478U 08003A   22276.27341028 -.00000093  00000+0  00000+0 0  9992
2 32478   1.3240  91.4604 0002851 122.7991 245.6808  1.00275427 40170
THOR 5                  
1 32487U 08006A   22276.34255303 -.00000018  00000+0  00000+0 0  9990
2 32487   0.0260 246.0072 0002348 299.7516 308.8623  1.00272516 53744
AMC-14                  
1 32708U 08011A   22276.02202309  .00000074  00000+0  00000+0 0  9996
2 32708  22.2255  36.8586 0033102   4.4319 355.8855  1.00276201 54597
DIRECTV 11              
1 32729U 08013A   22276.49771530 -.00000136  00000+0  00000+0 0  9999
2 32729   0.0448  16.5240 0000148 107.2922 328.3641  1.00270183 32032
ICO G1                  
1 32763U 08016A   22276.47735936 -.00000179  00000+0  00000+0 0  9995
2 32763   4.1265  27.9819 0002322 171.2115 251.9813  1.00271234 52987
VINASAT-1               
1 32767U 08018A   22276.47479293 -.00000339  00000+0  00000+0 0  9990
2 32767   0.0153 281.6518 0001913 282.4367 110.9596  1.00271323 53034
STAR ONE C2             
1 32768U 08018B   22276.40158767 -.00000286  00000+0  00000+0 0  9995
2 32768   0.0562  22.4035 0002761 178.8813 250.3907  1.00269995 53116
AMOS-3                  
1 32794U 08022A   22276.34194264 -.00000045  00000+0  00000+0 0  9997
2 32794   0.0348 110.5755 0002875  45.9370 334.5022  1.00270875 68784
GALAXY 18 (G-18)        
1 32951U 08024A   22276.52688253  .00000015  00000+0  00000+0 0  9996
2 32951   0.0222 259.4891 0003063 289.5698 249.8487  1.00272586 32283
CHINASAT 9 (ZX 9)       
1 33051U 08028A   22276.50465851 -.00000258  00000+0  00000+0 0  9997
2 33051   0.0130 204.5151 0004950   2.6555  78.9228  1.00272079 52479
SKYNET 5C               
1 33055U 08030A   22276.44285383 -.00000149  00000+0  00000+0 0  9996
2 33055   0.3099  83.1241 0003698 105.0395 325.6091  1.00270092 52393
TURKSAT 3A              
1 33056U 08030B   22276.49563025  .00000136  00000+0  00000+0 0  9999
2 33056   0.0567 108.5612 0004683  61.8260  62.2319  1.00272577 38795
INTELSAT 25 (IS-25)     
1 33153U 08034A   22276.44841118 -.00000233  00000+0  00000+0 0  9997
2 33153   0.0083 199.0359 0002978 341.2540 321.7855  1.00272318 52135
BADR-6                  
1 33154U 08034B   22276.20442767  .00000136  00000+0  00000+0 0  9990
2 33154   0.0733  56.5669 0003314 141.7211 273.2093  1.00273295 52198
ECHOSTAR 11             
1 33207U 08035A   22276.46437194 -.00000066  00000+0  00000+0 0  9999
2 33207   0.0309  92.5958 0002719  87.7207 249.0136  1.00271385 37661
SUPERBIRD-C2            
1 33274U 08038A   22276.55220520 -.00000261  00000+0  00000+0 0  9996
2 33274   0.0114 228.7946 0001935 301.5946 184.6125  1.00271192 92169
AMC-21                  
1 33275U 08038B   22276.46140712  .00000026  00000+0  00000+0 0  9999
2 33275   0.0404  56.8792 0002630 141.3279 215.1660  1.00271853 51920
INMARSAT 4-F3           
1 33278U 08039A   22276.34840954 -.00000147  00000+0  00000+0 0  9990
2 33278   3.3420  21.1091 0002846 179.1679 199.2064  1.00272135 32985
NIMIQ 4                 
1 33373U 08044A   22276.52063331 -.00000230  00000+0  00000+0 0  9991
2 33373   0.0179 132.7323 0002022  63.7629 281.1553  1.00270819 51423
GALAXY 19 (G-19)        
1 33376U 08045A   22276.49216102 -.00000149  00000+0  00000+0 0  9996
2 33376   0.0149 127.4522 0003078  68.7754 256.1333  1.00270981 51339
ASTRA 1M                
1 33436U 08057A   22276.27488554  .00000111  00000+0  00000+0 0  9992
2 33436   0.0397 103.4232 0005134  65.9712 320.7173  1.00272555 32160
CIEL-2                  
1 33453U 08063A   22276.53243703  .00000048  00000+0  00000+0 0  9991
2 33453   0.0203 235.7428 0003034 309.3031 250.0061  1.00271365 50560
EUTELSAT HOTBIRD 13C    
1 33459U 08065A   22276.20189885  .00000078  00000+0  00000+0 0  9996
2 33459   0.0585  18.2765 0004924 158.7081 280.6079  1.00273976 33780
EUTELSAT 48D            
1 33460U 08065B   22276.34028583 -.00000109  00000+0  00000+0 0  9996
2 33460   1.7288  91.1887 0003524  93.1797 297.6682  1.00271584 50393
FENGYUN 2E              
1 33463U 08066A   22275.69616762 -.00000208  00000+0  00000+0 0  9999
2 33463   6.1388  64.6479 0000956  41.5888 242.3801  1.00274061 50519
EXPRESS-AM44            
1 33595U 09007A   22275.83841766 -.00000096  00000+0  00000+0 0  9996
2 33595   0.0376 307.0804 0001245 354.2114   1.0917  1.00272099 49985
NSS-9                   
1 33749U 09008A   22276.52279618  .00000061  00000+0  00000+0 0  9997
2 33749   0.0413  47.9621 0002068 140.1095 195.4192  1.00271768 49962
EUTELSAT 33E            
1 33750U 09008B   22276.54354914  .00000145  00000+0  00000+0 0  9997
2 33750   0.0520   7.1764 0003965 176.0880  57.7301  1.00271033 49884
TELSTAR 11N             
1 34111U 09009A   22276.45396831 -.00000261  00000+0  00000+0 0  9994
2 34111   0.0206 180.3410 0002330 356.1871 321.4741  1.00269302 32679
EUTELSAT 10A            
1 34710U 09016A   22276.34473303  .00000058  00000+0  00000+0 0  9998
2 34710   0.0290  49.2765 0005705 153.4877 303.3152  1.00272381 27687
WGS F2 (USA 204)        
1 34713U 09017A   22276.49776968  .00000058  00000+0  00000+0 0  9991
2 34713   0.0190 181.1165 0000215   9.4374  58.3224  1.00271162 32052
SES-7 (PROTOSTAR 2)     
1 34941U 09027A   22276.58156050 -.00000356  00000+0  00000+0 0  9991
2 34941   0.0761  87.1912 0001892 145.2736  97.4372  1.00269374 49055
MEASAT-3A               
1 35362U 09032A   22276.50448411 -.00000252  00000+0  00000+0 0  9997
2 35362   0.0282 204.5171 0003706   6.0373  74.7681  1.00270179 48684
GOES 14                 
1 35491U 09033A   22276.49771530 -.00000103  00000+0  00000+0 0  9995
2 35491   0.3563 266.9710 0017856 306.9176 233.1112  1.00272399 48548
FM-5                    
1 35493U 09034A   22276.52063331 -.00000210  00000+0  00000+0 0  9994
2 35493   0.0160 258.7590 0000860 200.3660  14.3934  1.00270512 33086
TERRESTAR-1             
1 35496U 09035A   22276.46411034 -.00000064  00000+0  00000+0 0  9995
2 35496   3.3519  40.5534 0002615 152.9524 234.7463  1.00272280 48578
ASIASAT 5               
1 35696U 09042A   22276.50631531 -.00000318  00000+0  00000+0 0  9998
2 35696   0.0272 248.6283 0001613 296.3652 109.9854  1.00273543 48125
JCSAT-12 (JCSAT-RA)     
1 35755U 09044A   22276.53976663 -.00000338  00000+0  00000+0 0  9999
2 35755   0.0122 166.3850 0001929 323.2874 208.9243  1.00271796 48048
OPTUS D3                
1 35756U 09044B   22276.34285740 -.00000157  00000+0  00000+0 0  9997
2 35756   0.0228  53.4743 0002475 139.1752  98.7981  1.00269640 47991
NIMIQ 5                 
1 35873U 09050A   22276.51507882 -.00000267  00000+0  00000+0 0  9999
2 35873   0.0294 104.4769 0003099  90.7248 289.7483  1.00270841 47796
AMAZONAS 2              
1 35942U 09054A   22276.50952156 -.00000292  00000+0  00000+0 0  9995
2 35942   0.0388 127.6145 0004798  43.7241 323.3228  1.00272182 47624
COMSATBW-1              
1 35943U 09054B   22276.49881609  .00000014  00000+0  00000+0 0  9999
2 35943   0.0624  93.5719 0003220 110.9890  50.2215  1.00272891 47744
NSS-12                  
1 36032U 09058A   22276.49759528  .00000061  00000+0  00000+0 0  9999
2 36032   0.0413  75.7126 0002827 117.1575  55.4504  1.00270590 47354
THOR 6                  
1 36033U 09058B   22276.34255303 -.00000019  00000+0  00000+0 0  9990
2 36033   0.0203 130.2107 0001785  56.2745 308.0304  1.00271699 47448
INTELSAT 14 (IS-14)     
1 36097U 09064A   22276.45396831 -.00000283  00000+0  00000+0 0  9994
2 36097   0.0167 205.9835 0002463 340.7044 303.9105  1.00270645 47041
